     2              NAVIGATION DATA                         RINEX VERSION / TYPE
CCRINEXN V1.6.0 UX  CDDIS               30-JUL-16 15:33     PGM / RUN BY / DATE 
IGS BROADCAST EPHEMERIS FILE                                COMMENT             
    0.4657D-08  0.1490D-07 -0.5960D-07 -0.5960D-07          ION ALPHA           
    0.7987D+05  0.6554D+05 -0.6554D+05 -0.3932D+06          ION BETA            
    0.279396772385D-08 0.266453525910D-14   589824     1907 DELTA-UTC: A0,A1,T,W
    17                                                      LEAP SECONDS        
                                                            END OF HEADER       
17 16  7 29 16  0  0.0-0.203695148230D-03 0.227373675443D-12 0.000000000000D+00
    0.280000000000D+02-0.122093750000D+03 0.406659796156D-08 0.217659964624D+01
   -0.644847750664D-05 0.110334357014D-01 0.880844891071D-05 0.515373072052D+04
    0.489600000000D+06 0.372529029846D-07 0.198720958412D+01-0.227242708206D-06
    0.976919530380D+00 0.216218750000D+03-0.192593779122D+01-0.775175146299D-08
   -0.177864551630D-09 0.100000000000D+01 0.190700000000D+04 0.000000000000D+00
    0.200000000000D+01 0.000000000000D+00-0.107102096081D-07 0.280000000000D+02
    0.484230000000D+06 0.400000000000D+01 0.000000000000D+00 0.000000000000D+00
18 16  7 29 16  0  0.0 0.541688408703D-03 0.409272615798D-11 0.000000000000D+00
    0.360000000000D+02-0.471875000000D+01 0.548701427045D-08-0.254737186077D+01
   -0.189989805222D-06 0.172747030156D-01 0.538676977158D-05 0.515369679070D+04
    0.489600000000D+06 0.214204192162D-06-0.228251282613D+01-0.447034835815D-07
    0.925005041350D+00 0.255718750000D+03-0.186762780471D+01-0.825998691875D-08
    0.985755346381D-10 0.000000000000D+00 0.190700000000D+04 0.000000000000D+00
    0.200000000000D+01 0.000000000000D+00-0.111758708954D-07 0.360000000000D+02
    0.482400000000D+06 0.400000000000D+01 0.000000000000D+00 0.000000000000D+00
19 16  7 29 16  0  0.0-0.524622388184D-03 0.227373675443D-12 0.000000000000D+00
    0.680000000000D+02-0.106031250000D+03 0.420696095110D-08-0.992146266394D+00
   -0.531040132046D-05 0.107189381961D-01 0.862590968609D-05 0.515363102531D+04
    0.489600000000D+06 0.169500708580D-06 0.203584295710D+01 0.171363353729D-06
    0.974074940302D+00 0.218656250000D+03 0.829812224621D+00-0.796140305297D-08
   -0.115004790411D-09 0.100000000000D+01 0.190700000000D+04 0.000000000000D+00
    0.200000000000D+01 0.000000000000D+00-0.149011611938D-07 0.680000000000D+02
    0.487800000000D+06 0.400000000000D+01 0.000000000000D+00 0.000000000000D+00
20 16  7 29 16  0  0.0 0.427042599767D-03 0.216004991671D-11 0.000000000000D+00
    0.420000000000D+02 0.812500000000D+00 0.566666461076D-08 0.133557203770D+01
   -0.175088644028D-06 0.459148013033D-02 0.589340925217D-05 0.515376516151D+04
    0.489600000000D+06-0.204890966415D-07-0.233423422168D+01-0.782310962677D-07
    0.926328982212D+00 0.252781250000D+03 0.140591567526D+01-0.864286000981D-08
   -0.428589281035D-11 0.100000000000D+01 0.190700000000D+04 0.000000000000D+00
    0.200000000000D+01 0.000000000000D+00-0.838190317154D-08 0.420000000000D+02
    0.484170000000D+06 0.400000000000D+01 0.000000000000D+00 0.000000000000D+00
21 16  7 29 16  0  0.0-0.529410783201D-03-0.795807864051D-12 0.000000000000D+00
    0.960000000000D+02-0.775000000000D+01 0.489806116676D-08-0.161820689921D+01
   -0.266358256340D-06 0.233482165495D-01 0.959075987339D-05 0.515357939529D+04
    0.489600000000D+06 0.359490513802D-06 0.295929972056D+01 0.430271029472D-06
    0.937314453926D+00 0.178500000000D+03-0.177206608685D+01-0.803640617715D-08
    0.265725354242D-09 0.000000000000D+00 0.190700000000D+04 0.000000000000D+00
    0.200000000000D+01 0.000000000000D+00-0.977888703346D-08 0.960000000000D+02
    0.482400000000D+06 0.400000000000D+01 0.000000000000D+00 0.000000000000D+00
22 16  7 29 16  0  0.0 0.284903217107D-03-0.943600753089D-11 0.000000000000D+00
    0.960000000000D+02-0.101250000000D+02 0.573881047306D-08 0.169231527454D+01
   -0.845640897751D-06 0.760936329607D-02 0.588595867157D-05 0.515375741768D+04
    0.489600000000D+06-0.633299350738D-07-0.228199861920D+01-0.156462192535D-06
    0.922926294739D+00 0.247531250000D+03-0.188368108359D+01-0.861643033748D-08
   -0.109290266664D-09 0.100000000000D+01 0.190700000000D+04 0.000000000000D+00
    0.200000000000D+01 0.000000000000D+00-0.176951289177D-07 0.960000000000D+02
    0.488280000000D+06 0.400000000000D+01 0.000000000000D+00 0.000000000000D+00
23 16  7 29 16  0  0.0-0.184078235179D-03-0.147792889038D-11 0.000000000000D+00
    0.400000000000D+02 0.146562500000D+02 0.471876798420D-08 0.872209401651D+00
    0.907108187676D-06 0.111422528280D-01 0.999122858047D-05 0.515363947296D+04
    0.489600000000D+06-0.160187482834D-06-0.120341831628D+01 0.150874257088D-06
    0.945331637063D+00 0.181031250000D+03-0.254589477725D+01-0.809247994142D-08
   -0.528236288876D-09 0.100000000000D+01 0.190700000000D+04 0.000000000000D+00
    0.200000000000D+01 0.000000000000D+00-0.200234353542D-07 0.400000000000D+02
    0.482400000000D+06 0.400000000000D+01 0.000000000000D+00 0.000000000000D+00
24 16  7 29 16  0  0.0-0.208588317037D-04-0.454747350886D-12 0.000000000000D+00
    0.870000000000D+02 0.101781250000D+03 0.470305305811D-08 0.343972847073D+00
    0.534206628799D-05 0.449005316477D-02 0.859797000885D-05 0.515374303055D+04
    0.489600000000D+06 0.353902578354D-07-0.178163115289D+00 0.465661287308D-07
    0.949031443197D+00 0.210312500000D+03 0.411738540643D+00-0.821819945429D-08
    0.171792871595D-09 0.100000000000D+01 0.190700000000D+04 0.000000000000D+00
    0.280000000000D+01 0.000000000000D+00 0.232830643654D-08 0.870000000000D+02
    0.482400000000D+06 0.000000000000D+00 0.000000000000D+00 0.000000000000D+00
25 16  7 29 16  0  0.0-0.217370223254D-03-0.693489710102D-11 0.000000000000D+00
    0.880000000000D+02 0.127500000000D+02 0.448875840338D-08-0.176947193080D+01
    0.627711415291D-06 0.559941597749D-02 0.187009572983D-05 0.515372020531D+04
    0.489600000000D+06 0.135973095894D-06 0.895544836569D+00-0.149011611938D-07
    0.978390943624D+00 0.351531250000D+03 0.795620141092D+00-0.825784397235D-08
    0.160720980388D-09 0.000000000000D+00 0.190700000000D+04 0.000000000000D+00
    0.200000000000D+01 0.000000000000D+00 0.558793544769D-08 0.880000000000D+02
    0.482400000000D+06 0.400000000000D+01 0.000000000000D+00 0.000000000000D+00
26 16  7 29 16  0  0.0-0.435553025454D-03-0.932232069317D-11 0.000000000000D+00
    0.130000000000D+02 0.781250000000D+01 0.487841749138D-08-0.244936106883D+01
    0.348314642906D-06 0.908409245312D-03 0.209361314774D-05 0.515355229378D+04
    0.489600000000D+06-0.353902578354D-07 0.885466104886D+00-0.745058059692D-07
    0.960335734501D+00 0.341875000000D+03 0.757226337402D-01-0.846463830045D-08
    0.503592405216D-10 0.000000000000D+00 0.190700000000D+04 0.000000000000D+00
    0.200000000000D+01 0.000000000000D+00 0.698491930962D-08 0.130000000000D+02
    0.482400000000D+06 0.400000000000D+01 0.000000000000D+00 0.000000000000D+00
27 16  7 29 16  0  0.0 0.120390206575D-03 0.443378667114D-11 0.000000000000D+00
    0.450000000000D+02-0.937812500000D+02 0.435732435719D-08 0.216078207857D+01
   -0.485405325890D-05 0.378909579012D-02 0.816956162453D-05 0.515364938736D+04
    0.489600000000D+06-0.122934579849D-06 0.193692604833D+01 0.689178705216D-07
    0.971839020699D+00 0.228687500000D+03 0.339469054809D+00-0.797854662421D-08
   -0.132148361653D-09 0.000000000000D+00 0.190700000000D+04 0.000000000000D+00
    0.200000000000D+01 0.000000000000D+00 0.186264514923D-08 0.450000000000D+02
    0.487200000000D+06 0.400000000000D+01 0.000000000000D+00 0.000000000000D+00
28 16  7 29 16  0  0.0 0.540694221854D-03 0.272848410532D-11 0.000000000000D+00
    0.390000000000D+02-0.137812500000D+02 0.424053377811D-08 0.300415342963D+01
   -0.799074769020D-06 0.197715498507D-01 0.168010592461D-05 0.515362855148D+04
    0.489600000000D+06 0.324100255966D-06 0.970888595007D+00-0.763684511185D-07
    0.989398155764D+00 0.360812500000D+03-0.161349353662D+01-0.793997358891D-08
   -0.425017703693D-10 0.100000000000D+01 0.190700000000D+04 0.000000000000D+00
    0.200000000000D+01 0.000000000000D+00-0.107102096081D-07 0.390000000000D+02
    0.482400000000D+06 0.400000000000D+01 0.000000000000D+00 0.000000000000D+00
29 16  7 29 16  0  0.0 0.654683914036D-03-0.682121026330D-12 0.000000000000D+00
    0.740000000000D+02-0.105937500000D+03 0.417338812408D-08-0.203990278299D+01
   -0.544078648090D-05 0.704196281731D-03 0.771135091782D-05 0.515378062439D+04
    0.489600000000D+06 0.242143869400D-07 0.199700121082D+01-0.111758708954D-06
    0.977918552747D+00 0.237406250000D+03 0.557789261133D-01-0.796176021070D-08
   -0.160363822654D-09 0.000000000000D+00 0.190700000000D+04 0.000000000000D+00
    0.200000000000D+01 0.000000000000D+00-0.102445483208D-07 0.740000000000D+02
    0.482400000000D+06 0.400000000000D+01 0.000000000000D+00 0.000000000000D+00
30 16  7 29 16  0  0.0 0.142551492900D-03 0.216004991671D-11 0.000000000000D+00
    0.950000000000D+02 0.123781250000D+03 0.464983654150D-08-0.550357511479D+00
    0.638701021671D-05 0.234154635109D-02 0.730715692043D-05 0.515358164787D+04
    0.489600000000D+06 0.651925802231D-07-0.867135753056D-01-0.130385160446D-07
    0.951768652162D+00 0.229906250000D+03 0.311147770666D+01-0.827105880851D-08
    0.284297556420D-09 0.100000000000D+01 0.190700000000D+04 0.000000000000D+00
    0.200000000000D+01 0.000000000000D+00 0.372529029846D-08 0.950000000000D+02
    0.482400000000D+06 0.400000000000D+01 0.000000000000D+00 0.000000000000D+00
